QIANFAN-73              
1 63159U 25046A   26007.89820032  .00000202  00000+0  29426-3 0  9997
2 63159  88.9787 317.3176 0016825  51.4918 308.7739 13.50986037 50948
QIANFAN-74              
1 63160U 25046B   26007.88163441  .00000221  00000+0  32380-3 0  9996
2 63160  88.9787 317.2081 0001958  70.1022 290.0340 13.50983070 51002
QIANFAN-75              
1 63161U 25046C   26007.94290398  .00000206  00000+0  29973-3 0  9993
2 63161  88.9788 317.4358 0018042  53.7047 306.5768 13.50985829 50885
QIANFAN-76              
1 63162U 25046D   26007.93955499  .00000209  00000+0  30516-3 0  9991
2 63162  88.9787 317.4166 0015602  54.6263 305.6343 13.50988415 50895
QIANFAN-77              
1 63163U 25046E   26007.91787527  .00000504  00000+0  35726-3 0  9991
2 63163  88.9787 315.2113 0015519   7.1854 352.9542 13.96114877 52105
QIANFAN-78              
1 63164U 25046F   26007.90639682  .00000216  00000+0  31536-3 0  9994
2 63164  88.9787 317.2838 0017001  56.5024 303.7749 13.50987048 50960
QIANFAN-79              
1 63165U 25046G   26007.93503106  .00000054  00000+0  65292-4 0  9996
2 63165  88.9790 317.3894 0016697  54.9636 305.3079 13.50983887 50915
QIANFAN-80              
1 63166U 25046H   26007.95158304  .00000209  00000+0  30471-3 0  9997
2 63166  88.9788 317.0939 0015681  58.7698 301.4987 13.50986889 51070
